[{"OBJECT_NAME":"STARLINK-1434","OBJECT_ID":"2020-035BH","EPOCH":"2026-03-09T05:47:35.213856","MEAN_MOTION":15.26724568,"ECCENTRICITY":0.00053438,"INCLINATION":53.0547,"RA_OF_ASC_NODE":22.1128,"ARG_OF_PERICENTER":88.04,"MEAN_ANOMALY":272.121,"EPHEMERIS_TYPE":0,"CLASSIFICATION_TYPE":"U","NORAD_CAT_ID":45712,"ELEMENT_SET_NO":999,"REV_AT_EPOCH":31932,"BSTAR":0.0020295208,"MEAN_MOTION_DOT":0.00054112,"MEAN_MOTION_DDOT":0},{"OBJECT_NAME":"STARLINK-32749","OBJECT_ID":"2025-003X","EPOCH":"2026-03-09T22:50:33.802368","MEAN_MOTION":15.27603175,"ECCENTRICITY":0.00017472,"INCLINATION":42.9982,"RA_OF_ASC_NODE":287.3095,"ARG_OF_PERICENTER":261.6441,"MEAN_ANOMALY":98.4213,"EPHEMERIS_TYPE":0,"CLASSIFICATION_TYPE":"U","NORAD_CAT_ID":62508,"ELEMENT_SET_NO":999,"REV_AT_EPOCH":6659,"BSTAR":0.0011957253,"MEAN_MOTION_DOT":0.00032812,"MEAN_MOTION_DDOT":0}]
